SOYUZ-MS 28             
1 66664U 25275A   25364.14573551  .00004955  00000+0  98268-4 0  9999
2 66664  51.6332  56.2707 0007469 318.0919  41.9497 15.48928231  1282
1998-067XS              
1 66906U 98067XS  25364.12545772  .00035439  00000+0  59222-3 0  9996
2 66906  51.6324  56.1361 0002577 294.5740  65.4981 15.51571001  4311
1998-067XT              
1 66907U 98067XT  25364.17029806  .00093082  00000+0  14132-2 0  9995
2 66907  51.6313  55.6869 0003878 334.2261  25.8536 15.53804253  4329
1998-067XU              
1 66908U 98067XU  25364.16912884  .00081510  00000+0  12415-2 0  9997
2 66908  51.6312  55.6784 0003977 330.3243  29.7521 15.53774621  4324
SILVERSAT               
1 66909U 98067XV  25364.16643387  .00102111  00000+0  15252-2 0  9990
2 66909  51.6309  55.6604 0003991 338.2839  21.7981 15.54208106  4329
1998-067XW              
1 66910U 98067XW  25364.16516503  .00093900  00000+0  14129-2 0  9998
2 66910  51.6309  55.6521 0003535 309.0272  51.0403 15.54047114  4325
1998-067XX              
1 66911U 98067XX  25364.15938791  .00115518  00000+0  16882-2 0  9993
2 66911  51.6313  55.6140 0003273 320.7916  39.2838 15.54746694  4310
1998-067XY              
1 66912U 98067XY  25364.17739173  .00071108  00000+0  11171-2 0  9991
2 66912  51.6326  55.7354 0003870 323.4537  36.6189 15.52980518  4318
