CCSDS_OMM_VERS = 2.0
CREATION_DATE  = 
ORIGINATOR     = 

OBJECT_NAME    = SOYUZ-MS 28
OBJECT_ID      = 2025-275A
CENTER_NAME    = EARTH
REF_FRAME      = TEME
TIME_SYSTEM    = UTC
MEAN_ELEMENT_THEORY = SGP/SGP4

EPOCH          = 2025-12-30T03:29:51.548064
MEAN_MOTION    = 15.48928231
ECCENTRICITY   = .0007469
INCLINATION    = 51.6332
RA_OF_ASC_NODE = 56.2707
ARG_OF_PERICENTER = 318.0919
MEAN_ANOMALY   = 41.9497

EPHEMERIS_TYPE = 0
CLASSIFICATION_TYPE = U
NORAD_CAT_ID   = 66664
ELEMENT_SET_NO = 999
REV_AT_EPOCH   = 128
BSTAR          = .98267799E-4
MEAN_MOTION_DOT = .4955E-4
MEAN_MOTION_DDOT = 0

CCSDS_OMM_VERS = 2.0
CREATION_DATE  = 
ORIGINATOR     = 

OBJECT_NAME    = 1998-067XS
OBJECT_ID      = 1998-067XS
CENTER_NAME    = EARTH
REF_FRAME      = TEME
TIME_SYSTEM    = UTC
MEAN_ELEMENT_THEORY = SGP/SGP4

EPOCH          = 2025-12-30T03:00:39.547008
MEAN_MOTION    = 15.51571001
ECCENTRICITY   = .0002577
INCLINATION    = 51.6324
RA_OF_ASC_NODE = 56.1361
ARG_OF_PERICENTER = 294.5740
MEAN_ANOMALY   = 65.4981

EPHEMERIS_TYPE = 0
CLASSIFICATION_TYPE = U
NORAD_CAT_ID   = 66906
ELEMENT_SET_NO = 999
REV_AT_EPOCH   = 431
BSTAR          = .59221604E-3
MEAN_MOTION_DOT = .35439E-3
MEAN_MOTION_DDOT = 0

CCSDS_OMM_VERS = 2.0
CREATION_DATE  = 
ORIGINATOR     = 

OBJECT_NAME    = 1998-067XT
OBJECT_ID      = 1998-067XT
CENTER_NAME    = EARTH
REF_FRAME      = TEME
TIME_SYSTEM    = UTC
MEAN_ELEMENT_THEORY = SGP/SGP4

EPOCH          = 2025-12-30T04:05:13.752384
MEAN_MOTION    = 15.53804253
ECCENTRICITY   = .00038784
INCLINATION    = 51.6313
RA_OF_ASC_NODE = 55.6869
ARG_OF_PERICENTER = 334.2261
MEAN_ANOMALY   = 25.8536

EPHEMERIS_TYPE = 0
CLASSIFICATION_TYPE = U
NORAD_CAT_ID   = 66907
ELEMENT_SET_NO = 999
REV_AT_EPOCH   = 432
BSTAR          = .14132054E-2
MEAN_MOTION_DOT = .93082E-3
MEAN_MOTION_DDOT = 0

CCSDS_OMM_VERS = 2.0
CREATION_DATE  = 
ORIGINATOR     = 

OBJECT_NAME    = 1998-067XU
OBJECT_ID      = 1998-067XU
CENTER_NAME    = EARTH
REF_FRAME      = TEME
TIME_SYSTEM    = UTC
MEAN_ELEMENT_THEORY = SGP/SGP4

EPOCH          = 2025-12-30T04:03:32.731776
MEAN_MOTION    = 15.53774621
ECCENTRICITY   = .00039774
INCLINATION    = 51.6312
RA_OF_ASC_NODE = 55.6784
ARG_OF_PERICENTER = 330.3243
MEAN_ANOMALY   = 29.7521

EPHEMERIS_TYPE = 0
CLASSIFICATION_TYPE = U
NORAD_CAT_ID   = 66908
ELEMENT_SET_NO = 999
REV_AT_EPOCH   = 432
BSTAR          = .12415408E-2
MEAN_MOTION_DOT = .8151E-3
MEAN_MOTION_DDOT = 0

CCSDS_OMM_VERS = 2.0
CREATION_DATE  = 
ORIGINATOR     = 

OBJECT_NAME    = SILVERSAT
OBJECT_ID      = 1998-067XV
CENTER_NAME    = EARTH
REF_FRAME      = TEME
TIME_SYSTEM    = UTC
MEAN_ELEMENT_THEORY = SGP/SGP4

EPOCH          = 2025-12-30T03:59:39.886368
MEAN_MOTION    = 15.54208106
ECCENTRICITY   = .00039913
INCLINATION    = 51.6309
RA_OF_ASC_NODE = 55.6604
ARG_OF_PERICENTER = 338.2839
MEAN_ANOMALY   = 21.7981

EPHEMERIS_TYPE = 0
CLASSIFICATION_TYPE = U
NORAD_CAT_ID   = 66909
ELEMENT_SET_NO = 999
REV_AT_EPOCH   = 432
BSTAR          = .1525229E-2
MEAN_MOTION_DOT = .102111E-2
MEAN_MOTION_DDOT = 0

CCSDS_OMM_VERS = 2.0
CREATION_DATE  = 
ORIGINATOR     = 

OBJECT_NAME    = 1998-067XW
OBJECT_ID      = 1998-067XW
CENTER_NAME    = EARTH
REF_FRAME      = TEME
TIME_SYSTEM    = UTC
MEAN_ELEMENT_THEORY = SGP/SGP4

EPOCH          = 2025-12-30T03:57:50.258592
MEAN_MOTION    = 15.54047114
ECCENTRICITY   = .00035356
INCLINATION    = 51.6309
RA_OF_ASC_NODE = 55.6521
ARG_OF_PERICENTER = 309.0272
MEAN_ANOMALY   = 51.0403

EPHEMERIS_TYPE = 0
CLASSIFICATION_TYPE = U
NORAD_CAT_ID   = 66910
ELEMENT_SET_NO = 999
REV_AT_EPOCH   = 432
BSTAR          = .14129449E-2
MEAN_MOTION_DOT = .939E-3
MEAN_MOTION_DDOT = 0

CCSDS_OMM_VERS = 2.0
CREATION_DATE  = 
ORIGINATOR     = 

OBJECT_NAME    = 1998-067XX
OBJECT_ID      = 1998-067XX
CENTER_NAME    = EARTH
REF_FRAME      = TEME
TIME_SYSTEM    = UTC
MEAN_ELEMENT_THEORY = SGP/SGP4

EPOCH          = 2025-12-30T03:49:31.115424
MEAN_MOTION    = 15.54746694
ECCENTRICITY   = .0003273
INCLINATION    = 51.6313
RA_OF_ASC_NODE = 55.6140
ARG_OF_PERICENTER = 320.7916
MEAN_ANOMALY   = 39.2838

EPHEMERIS_TYPE = 0
CLASSIFICATION_TYPE = U
NORAD_CAT_ID   = 66911
ELEMENT_SET_NO = 999
REV_AT_EPOCH   = 431
BSTAR          = .16882459E-2
MEAN_MOTION_DOT = .115518E-2
MEAN_MOTION_DDOT = 0

CCSDS_OMM_VERS = 2.0
CREATION_DATE  = 
ORIGINATOR     = 

OBJECT_NAME    = 1998-067XY
OBJECT_ID      = 1998-067XY
CENTER_NAME    = EARTH
REF_FRAME      = TEME
TIME_SYSTEM    = UTC
MEAN_ELEMENT_THEORY = SGP/SGP4

EPOCH          = 2025-12-30T04:15:26.645472
MEAN_MOTION    = 15.52980518
ECCENTRICITY   = .00038706
INCLINATION    = 51.6326
RA_OF_ASC_NODE = 55.7354
ARG_OF_PERICENTER = 323.4537
MEAN_ANOMALY   = 36.6189

EPHEMERIS_TYPE = 0
CLASSIFICATION_TYPE = U
NORAD_CAT_ID   = 66912
ELEMENT_SET_NO = 999
REV_AT_EPOCH   = 431
BSTAR          = .11171218E-2
MEAN_MOTION_DOT = .71108E-3
MEAN_MOTION_DDOT = 0

